[{"OBJECT_NAME":"STARLINK-1912","OBJECT_ID":"2020-088BJ","EPOCH":"2026-03-09T00:10:17.079168","MEAN_MOTION":15.55634663,"ECCENTRICITY":0.00082154,"INCLINATION":53.0525,"RA_OF_ASC_NODE":284.7515,"ARG_OF_PERICENTER":157.4332,"MEAN_ANOMALY":202.7041,"EPHEMERIS_TYPE":0,"CLASSIFICATION_TYPE":"U","NORAD_CAT_ID":47178,"ELEMENT_SET_NO":999,"REV_AT_EPOCH":29201,"BSTAR":0.0016669188,"MEAN_MOTION_DOT":0.00117861,"MEAN_MOTION_DDOT":0},{"OBJECT_NAME":"OBJECT E","OBJECT_ID":"2022-019E","EPOCH":"2026-03-09T23:02:18.608640","MEAN_MOTION":15.54311687,"ECCENTRICITY":0.0007625,"INCLINATION":97.3769,"RA_OF_ASC_NODE":162.7783,"ARG_OF_PERICENTER":112.7188,"MEAN_ANOMALY":247.4872,"EPHEMERIS_TYPE":0,"CLASSIFICATION_TYPE":"U","NORAD_CAT_ID":51828,"ELEMENT_SET_NO":999,"REV_AT_EPOCH":22455,"BSTAR":0.00045599749,"MEAN_MOTION_DOT":0.00029815,"MEAN_MOTION_DDOT":0}]
